ONEWEB-0371             
1 49297U 21090U   26136.19518501  .00000060  00000+0  11874-3 0  9990
2 49297  87.9150 311.3445 0001669  90.5759 269.5565 13.19725894222239
ONEWEB-0372             
1 49298U 21090V   26136.11699812  .00003214  00000+0  78822-2 0  9997
2 49298  87.9117 280.8300 0000635 115.1399 244.9800 13.20668756225607
ONEWEB-0373             
1 49299U 21090W   26136.14249403 -.00000017  00000+0 -73285-4 0  9998
2 49299  87.9163 280.8336 0001886 101.3039 258.8306 13.20869029226797
ONEWEB-0374             
1 49300U 21090X   26136.14924761 -.00000089  00000+0 -27371-3 0  9991
2 49300  87.8934 296.0879 0002411  99.9420 260.1982 13.14500973223355
ONEWEB-0375             
1 49301U 21090Y   26136.13065904  .00000050  00000+0  92224-4 0  9992
2 49301  87.9166 280.8269 0002407 104.6475 255.4925 13.20755926226294
ONEWEB-0376             
1 49302U 21090Z   26136.19359096  .00000149  00000+0  33960-3 0  9997
2 49302  87.9161 311.3431 0001696  87.0033 273.1294 13.19727854222237
ONEWEB-0377             
1 49303U 21090AA  26136.11728195  .00000580  00000+0  13968-2 0  9994
2 49303  87.9169 280.8335 0002385 105.6548 254.4848 13.20664637226280
ONEWEB-0378             
1 49304U 21090AB  26135.68309642 -.00000006  00000+0 -45665-4 0  9994
2 49304  87.9160 280.9247 0002079  98.4083 261.7286 13.20911178225492
ONEWEB-0379             
1 49305U 21090AC  26136.14449190  .00000044  00000+0  85291-4 0  9999
2 49305  87.8939 296.0998 0001888  95.6657 264.4688 13.14504040223358
ONEWEB-0380             
1 49306U 21090AD  26136.19042771 -.00000060  00000+0 -18277-3 0  9998
2 49306  87.9149 311.3524 0001899  97.9010 262.2338 13.19723846222202
ONEWEB-0381             
1 49307U 21090AE  26136.11380484  .00000803  00000+0  19460-2 0  9994
2 49307  87.9166 280.8359 0001904 100.3413 259.7935 13.20692753225594
ONEWEB-0382             
1 49308U 21090AF  26136.10037665 -.00000022  00000+0 -84957-4 0  9994
2 49308  87.9163 280.8341 0002194  98.4186 261.7196 13.20799011225585
ONEWEB-0383             
1 49309U 21090AG  26136.13816416  .00000085  00000+0  19608-3 0  9994
2 49309  87.8949 296.0907 0001931  93.5155 266.6195 13.14503416223388
ONEWEB-0384             
1 49310U 21090AH  26136.16571835 -.00016291  00000+0 -40097-1 0  9994
2 49310  87.9165 280.8645 0001168  45.1974 314.9255 13.20894727225601
ONEWEB-0385             
1 49311U 21090AJ  26136.09351980  .00004200  00000+0  10307-1 0  9990
2 49311  87.9194 280.8424 0002078  84.8050 275.3321 13.20677743225561
ONEWEB-0386             
1 49312U 21090AK  26136.11045354  .00000147  00000+0  33093-3 0  9994
2 49312  87.9167 280.8263 0002167  96.5974 263.5406 13.20718028225584
