[{"OBJECT_NAME":"ONEWEB-0371","OBJECT_ID":"2021-090U","EPOCH":"2026-05-16T04:41:03.984864","MEAN_MOTION":13.19725894,"ECCENTRICITY":0.0001669,"INCLINATION":87.915,"RA_OF_ASC_NODE":311.3445,"ARG_OF_PERICENTER":90.5759,"MEAN_ANOMALY":269.5565,"EPHEMERIS_TYPE":0,"CLASSIFICATION_TYPE":"U","NORAD_CAT_ID":49297,"ELEMENT_SET_NO":999,"REV_AT_EPOCH":22223,"BSTAR":0.00011874,"MEAN_MOTION_DOT":6e-07,"MEAN_MOTION_DDOT":0.0},{"OBJECT_NAME":"ONEWEB-0372","OBJECT_ID":"2021-090V","EPOCH":"2026-05-16T02:48:28.637568","MEAN_MOTION":13.20668756,"ECCENTRICITY":6.35e-05,"INCLINATION":87.9117,"RA_OF_ASC_NODE":280.83,"ARG_OF_PERICENTER":115.1399,"MEAN_ANOMALY":244.98,"EPHEMERIS_TYPE":0,"CLASSIFICATION_TYPE":"U","NORAD_CAT_ID":49298,"ELEMENT_SET_NO":999,"REV_AT_EPOCH":22560,"BSTAR":0.0078822,"MEAN_MOTION_DOT":3.214e-05,"MEAN_MOTION_DDOT":0.0},{"OBJECT_NAME":"ONEWEB-0373","OBJECT_ID":"2021-090W","EPOCH":"2026-05-16T03:25:11.484192","MEAN_MOTION":13.20869029,"ECCENTRICITY":0.0001886,"INCLINATION":87.9163,"RA_OF_ASC_NODE":280.8336,"ARG_OF_PERICENTER":101.3039,"MEAN_ANOMALY":258.8306,"EPHEMERIS_TYPE":0,"CLASSIFICATION_TYPE":"U","NORAD_CAT_ID":49299,"ELEMENT_SET_NO":999,"REV_AT_EPOCH":22679,"BSTAR":-7.3285e-05,"MEAN_MOTION_DOT":-1.7e-07,"MEAN_MOTION_DDOT":0.0},{"OBJECT_NAME":"ONEWEB-0374","OBJECT_ID":"2021-090X","EPOCH":"2026-05-16T03:34:54.993504","MEAN_MOTION":13.14500973,"ECCENTRICITY":0.0002411,"INCLINATION":87.8934,"RA_OF_ASC_NODE":296.0879,"ARG_OF_PERICENTER":99.942,"MEAN_ANOMALY":260.1982,"EPHEMERIS_TYPE":0,"CLASSIFICATION_TYPE":"U","NORAD_CAT_ID":49300,"ELEMENT_SET_NO":999,"REV_AT_EPOCH":22335,"BSTAR":-0.00027371000000000003,"MEAN_MOTION_DOT":-8.9e-07,"MEAN_MOTION_DDOT":0.0},{"OBJECT_NAME":"ONEWEB-0375","OBJECT_ID":"2021-090Y","EPOCH":"2026-05-16T03:08:08.941056","MEAN_MOTION":13.20755926,"ECCENTRICITY":0.0002407,"INCLINATION":87.9166,"RA_OF_ASC_NODE":280.8269,"ARG_OF_PERICENTER":104.6475,"MEAN_ANOMALY":255.4925,"EPHEMERIS_TYPE":0,"CLASSIFICATION_TYPE":"U","NORAD_CAT_ID":49301,"ELEMENT_SET_NO":999,"REV_AT_EPOCH":22629,"BSTAR":9.2224e-05,"MEAN_MOTION_DOT":5e-07,"MEAN_MOTION_DDOT":0.0},{"OBJECT_NAME":"ONEWEB-0376","OBJECT_ID":"2021-090Z","EPOCH":"2026-05-16T04:38:46.258944","MEAN_MOTION":13.19727854,"ECCENTRICITY":0.0001696,"INCLINATION":87.9161,"RA_OF_ASC_NODE":311.3431,"ARG_OF_PERICENTER":87.0033,"MEAN_ANOMALY":273.1294,"EPHEMERIS_TYPE":0,"CLASSIFICATION_TYPE":"U","NORAD_CAT_ID":49302,"ELEMENT_SET_NO":999,"REV_AT_EPOCH":22223,"BSTAR":0.0003396,"MEAN_MOTION_DOT":1.49e-06,"MEAN_MOTION_DDOT":0.0},{"OBJECT_NAME":"ONEWEB-0377","OBJECT_ID":"2021-090AA","EPOCH":"2026-05-16T02:48:53.160480","MEAN_MOTION":13.20664637,"ECCENTRICITY":0.0002385,"INCLINATION":87.9169,"RA_OF_ASC_NODE":280.8335,"ARG_OF_PERICENTER":105.6548,"MEAN_ANOMALY":254.4848,"EPHEMERIS_TYPE":0,"CLASSIFICATION_TYPE":"U","NORAD_CAT_ID":49303,"ELEMENT_SET_NO":999,"REV_AT_EPOCH":22628,"BSTAR":0.0013968,"MEAN_MOTION_DOT":5.8e-06,"MEAN_MOTION_DDOT":0.0},{"OBJECT_NAME":"ONEWEB-0378","OBJECT_ID":"2021-090AB","EPOCH":"2026-05-15T16:23:39.530688","MEAN_MOTION":13.20911178,"ECCENTRICITY":0.0002079,"INCLINATION":87.916,"RA_OF_ASC_NODE":280.9247,"ARG_OF_PERICENTER":98.4083,"MEAN_ANOMALY":261.7286,"EPHEMERIS_TYPE":0,"CLASSIFICATION_TYPE":"U","NORAD_CAT_ID":49304,"ELEMENT_SET_NO":999,"REV_AT_EPOCH":22549,"BSTAR":-4.5665000000000004e-05,"MEAN_MOTION_DOT":-6e-08,"MEAN_MOTION_DDOT":0.0},{"OBJECT_NAME":"ONEWEB-0379","OBJECT_ID":"2021-090AC","EPOCH":"2026-05-16T03:28:04.100160","MEAN_MOTION":13.1450404,"ECCENTRICITY":0.0001888,"INCLINATION":87.8939,"RA_OF_ASC_NODE":296.0998,"ARG_OF_PERICENTER":95.6657,"MEAN_ANOMALY":264.4688,"EPHEMERIS_TYPE":0,"CLASSIFICATION_TYPE":"U","NORAD_CAT_ID":49305,"ELEMENT_SET_NO":999,"REV_AT_EPOCH":22335,"BSTAR":8.5291e-05,"MEAN_MOTION_DOT":4.4e-07,"MEAN_MOTION_DDOT":0.0},{"OBJECT_NAME":"ONEWEB-0380","OBJECT_ID":"2021-090AD","EPOCH":"2026-05-16T04:34:12.954144","MEAN_MOTION":13.19723846,"ECCENTRICITY":0.0001899,"INCLINATION":87.9149,"RA_OF_ASC_NODE":311.3524,"ARG_OF_PERICENTER":97.901,"MEAN_ANOMALY":262.2338,"EPHEMERIS_TYPE":0,"CLASSIFICATION_TYPE":"U","NORAD_CAT_ID":49306,"ELEMENT_SET_NO":999,"REV_AT_EPOCH":22220,"BSTAR":-0.00018277,"MEAN_MOTION_DOT":-6e-07,"MEAN_MOTION_DDOT":0.0},{"OBJECT_NAME":"ONEWEB-0381","OBJECT_ID":"2021-090AE","EPOCH":"2026-05-16T02:43:52.738176","MEAN_MOTION":13.20692753,"ECCENTRICITY":0.0001904,"INCLINATION":87.9166,"RA_OF_ASC_NODE":280.8359,"ARG_OF_PERICENTER":100.3413,"MEAN_ANOMALY":259.7935,"EPHEMERIS_TYPE":0,"CLASSIFICATION_TYPE":"U","NORAD_CAT_ID":49307,"ELEMENT_SET_NO":999,"REV_AT_EPOCH":22559,"BSTAR":0.001946,"MEAN_MOTION_DOT":8.03e-06,"MEAN_MOTION_DDOT":0.0},{"OBJECT_NAME":"ONEWEB-0382","OBJECT_ID":"2021-090AF","EPOCH":"2026-05-16T02:24:32.542560","MEAN_MOTION":13.20799011,"ECCENTRICITY":0.0002194,"INCLINATION":87.9163,"RA_OF_ASC_NODE":280.8341,"ARG_OF_PERICENTER":98.4186,"MEAN_ANOMALY":261.7196,"EPHEMERIS_TYPE":0,"CLASSIFICATION_TYPE":"U","NORAD_CAT_ID":49308,"ELEMENT_SET_NO":999,"REV_AT_EPOCH":22558,"BSTAR":-8.4957e-05,"MEAN_MOTION_DOT":-2.2e-07,"MEAN_MOTION_DDOT":0.0},{"OBJECT_NAME":"ONEWEB-0383","OBJECT_ID":"2021-090AG","EPOCH":"2026-05-16T03:18:57.383424","MEAN_MOTION":13.14503416,"ECCENTRICITY":0.0001931,"INCLINATION":87.8949,"RA_OF_ASC_NODE":296.0907,"ARG_OF_PERICENTER":93.5155,"MEAN_ANOMALY":266.6195,"EPHEMERIS_TYPE":0,"CLASSIFICATION_TYPE":"U","NORAD_CAT_ID":49309,"ELEMENT_SET_NO":999,"REV_AT_EPOCH":22338,"BSTAR":0.00019608,"MEAN_MOTION_DOT":8.5e-07,"MEAN_MOTION_DDOT":0.0},{"OBJECT_NAME":"ONEWEB-0384","OBJECT_ID":"2021-090AH","EPOCH":"2026-05-16T03:58:38.065440","MEAN_MOTION":13.20894727,"ECCENTRICITY":0.0001168,"INCLINATION":87.9165,"RA_OF_ASC_NODE":280.8645,"ARG_OF_PERICENTER":45.1974,"MEAN_ANOMALY":314.9255,"EPHEMERIS_TYPE":0,"CLASSIFICATION_TYPE":"U","NORAD_CAT_ID":49310,"ELEMENT_SET_NO":999,"REV_AT_EPOCH":22560,"BSTAR":-0.040097,"MEAN_MOTION_DOT":-0.00016291,"MEAN_MOTION_DDOT":0.0},{"OBJECT_NAME":"ONEWEB-0385","OBJECT_ID":"2021-090AJ","EPOCH":"2026-05-16T02:14:40.110720","MEAN_MOTION":13.20677743,"ECCENTRICITY":0.0002078,"INCLINATION":87.9194,"RA_OF_ASC_NODE":280.8424,"ARG_OF_PERICENTER":84.805,"MEAN_ANOMALY":275.3321,"EPHEMERIS_TYPE":0,"CLASSIFICATION_TYPE":"U","NORAD_CAT_ID":49311,"ELEMENT_SET_NO":999,"REV_AT_EPOCH":22556,"BSTAR":0.010307,"MEAN_MOTION_DOT":4.2e-05,"MEAN_MOTION_DDOT":0.0},{"OBJECT_NAME":"ONEWEB-0386","OBJECT_ID":"2021-090AK","EPOCH":"2026-05-16T02:39:03.185856","MEAN_MOTION":13.20718028,"ECCENTRICITY":0.0002167,"INCLINATION":87.9167,"RA_OF_ASC_NODE":280.8263,"ARG_OF_PERICENTER":96.5974,"MEAN_ANOMALY":263.5406,"EPHEMERIS_TYPE":0,"CLASSIFICATION_TYPE":"U","NORAD_CAT_ID":49312,"ELEMENT_SET_NO":999,"REV_AT_EPOCH":22558,"BSTAR":0.00033093,"MEAN_MOTION_DOT":1.47e-06,"MEAN_MOTION_DDOT":0.0}]